<?xml version="1.0" encoding="UTF-8"?>
<gpx version="1.1" creator="MeteoRide" xmlns="http://www.topografix.com/GPX/1/1">
  <metadata>
    <name>Example ride - Castelldefels to Garraf</name>
    <desc>A sample route bundled with MeteoRide so the forecast can be tried without a file of your own. About 17 km out and back from Castelldefels to Garraf along the C-31 coast road. Routed on OpenStreetMap roads with BRouter; map data (c) OpenStreetMap contributors, ODbL.</desc>
  </metadata>
  <trk>
    <name>Example ride - Castelldefels to Garraf</name>
    <trkseg>
      <trkpt lat="41.28060" lon="1.97884"><ele>3.0</ele></trkpt>
      <trkpt lat="41.28088" lon="1.97914"><ele>3.0</ele></trkpt>
      <trkpt lat="41.28105" lon="1.97928"><ele>3.0</ele></trkpt>
      <trkpt lat="41.28080" lon="1.97970"><ele>3.0</ele></trkpt>
      <trkpt lat="41.28074" lon="1.97980"><ele>3.0</ele></trkpt>
      <trkpt lat="41.28071" lon="1.97978"><ele>3.0</ele></trkpt>
      <trkpt lat="41.28067" lon="1.97977"><ele>3.0</ele></trkpt>
      <trkpt lat="41.28064" lon="1.97978"><ele>3.0</ele></trkpt>
      <trkpt lat="41.28062" lon="1.97981"><ele>3.0</ele></trkpt>
      <trkpt lat="41.28035" lon="1.97953"><ele>3.0</ele></trkpt>
      <trkpt lat="41.28001" lon="1.97917"><ele>3.0</ele></trkpt>
      <trkpt lat="41.27955" lon="1.97870"><ele>3.0</ele></trkpt>
      <trkpt lat="41.27944" lon="1.97857"><ele>3.0</ele></trkpt>
      <trkpt lat="41.27917" lon="1.97829"><ele>3.2</ele></trkpt>
      <trkpt lat="41.27913" lon="1.97825"><ele>3.5</ele></trkpt>
      <trkpt lat="41.27879" lon="1.97789"><ele>3.0</ele></trkpt>
      <trkpt lat="41.27872" lon="1.97782"><ele>3.0</ele></trkpt>
      <trkpt lat="41.27852" lon="1.97764"><ele>3.0</ele></trkpt>
      <trkpt lat="41.27838" lon="1.97748"><ele>3.0</ele></trkpt>
      <trkpt lat="41.27836" lon="1.97746"><ele>3.0</ele></trkpt>
      <trkpt lat="41.27826" lon="1.97735"><ele>2.8</ele></trkpt>
      <trkpt lat="41.27823" lon="1.97732"><ele>2.8</ele></trkpt>
      <trkpt lat="41.27814" lon="1.97722"><ele>2.8</ele></trkpt>
      <trkpt lat="41.27812" lon="1.97720"><ele>3.0</ele></trkpt>
      <trkpt lat="41.27809" lon="1.97717"><ele>3.0</ele></trkpt>
      <trkpt lat="41.27792" lon="1.97698"><ele>3.0</ele></trkpt>
      <trkpt lat="41.27774" lon="1.97682"><ele>3.0</ele></trkpt>
      <trkpt lat="41.27768" lon="1.97676"><ele>3.0</ele></trkpt>
      <trkpt lat="41.27714" lon="1.97619"><ele>3.0</ele></trkpt>
      <trkpt lat="41.27705" lon="1.97610"><ele>3.0</ele></trkpt>
      <trkpt lat="41.27696" lon="1.97601"><ele>3.0</ele></trkpt>
      <trkpt lat="41.27625" lon="1.97527"><ele>3.0</ele></trkpt>
      <trkpt lat="41.27615" lon="1.97516"><ele>3.0</ele></trkpt>
      <trkpt lat="41.27610" lon="1.97511"><ele>2.8</ele></trkpt>
      <trkpt lat="41.27605" lon="1.97506"><ele>2.8</ele></trkpt>
      <trkpt lat="41.27577" lon="1.97475"><ele>2.5</ele></trkpt>
      <trkpt lat="41.27568" lon="1.97467"><ele>2.2</ele></trkpt>
      <trkpt lat="41.27565" lon="1.97459"><ele>2.2</ele></trkpt>
      <trkpt lat="41.27556" lon="1.97448"><ele>2.0</ele></trkpt>
      <trkpt lat="41.27556" lon="1.97445"><ele>2.0</ele></trkpt>
      <trkpt lat="41.27551" lon="1.97436"><ele>2.0</ele></trkpt>
      <trkpt lat="41.27544" lon="1.97429"><ele>2.2</ele></trkpt>
      <trkpt lat="41.27486" lon="1.97366"><ele>2.0</ele></trkpt>
      <trkpt lat="41.27419" lon="1.97296"><ele>2.2</ele></trkpt>
      <trkpt lat="41.27412" lon="1.97291"><ele>2.5</ele></trkpt>
      <trkpt lat="41.27406" lon="1.97290"><ele>2.5</ele></trkpt>
      <trkpt lat="41.27400" lon="1.97293"><ele>2.5</ele></trkpt>
      <trkpt lat="41.27388" lon="1.97280"><ele>2.0</ele></trkpt>
      <trkpt lat="41.27386" lon="1.97278"><ele>2.0</ele></trkpt>
      <trkpt lat="41.27364" lon="1.97255"><ele>2.8</ele></trkpt>
      <trkpt lat="41.27330" lon="1.97218"><ele>3.0</ele></trkpt>
      <trkpt lat="41.27284" lon="1.97156"><ele>6.2</ele></trkpt>
      <trkpt lat="41.27275" lon="1.97142"><ele>4.2</ele></trkpt>
      <trkpt lat="41.27270" lon="1.97132"><ele>4.2</ele></trkpt>
      <trkpt lat="41.27273" lon="1.97130"><ele>3.8</ele></trkpt>
      <trkpt lat="41.27275" lon="1.97125"><ele>3.5</ele></trkpt>
      <trkpt lat="41.27275" lon="1.97123"><ele>3.5</ele></trkpt>
      <trkpt lat="41.27273" lon="1.97119"><ele>4.0</ele></trkpt>
      <trkpt lat="41.27269" lon="1.97117"><ele>4.8</ele></trkpt>
      <trkpt lat="41.27267" lon="1.97118"><ele>5.2</ele></trkpt>
      <trkpt lat="41.27265" lon="1.97121"><ele>5.8</ele></trkpt>
      <trkpt lat="41.27264" lon="1.97123"><ele>5.8</ele></trkpt>
      <trkpt lat="41.27261" lon="1.97120"><ele>6.5</ele></trkpt>
      <trkpt lat="41.27258" lon="1.97116"><ele>7.5</ele></trkpt>
      <trkpt lat="41.27178" lon="1.96988"><ele>5.5</ele></trkpt>
      <trkpt lat="41.27142" lon="1.96927"><ele>4.0</ele></trkpt>
      <trkpt lat="41.27128" lon="1.96902"><ele>3.2</ele></trkpt>
      <trkpt lat="41.27125" lon="1.96896"><ele>3.0</ele></trkpt>
      <trkpt lat="41.27111" lon="1.96872"><ele>3.0</ele></trkpt>
      <trkpt lat="41.27100" lon="1.96853"><ele>3.8</ele></trkpt>
      <trkpt lat="41.27092" lon="1.96831"><ele>4.8</ele></trkpt>
      <trkpt lat="41.27047" lon="1.96749"><ele>6.2</ele></trkpt>
      <trkpt lat="41.27031" lon="1.96719"><ele>7.0</ele></trkpt>
      <trkpt lat="41.27002" lon="1.96665"><ele>5.8</ele></trkpt>
      <trkpt lat="41.26996" lon="1.96644"><ele>4.5</ele></trkpt>
      <trkpt lat="41.26990" lon="1.96617"><ele>3.2</ele></trkpt>
      <trkpt lat="41.26986" lon="1.96595"><ele>3.2</ele></trkpt>
      <trkpt lat="41.26983" lon="1.96582"><ele>3.5</ele></trkpt>
      <trkpt lat="41.26983" lon="1.96559"><ele>3.2</ele></trkpt>
      <trkpt lat="41.26984" lon="1.96547"><ele>3.2</ele></trkpt>
      <trkpt lat="41.26987" lon="1.96539"><ele>3.2</ele></trkpt>
      <trkpt lat="41.26986" lon="1.96530"><ele>3.2</ele></trkpt>
      <trkpt lat="41.26985" lon="1.96525"><ele>3.5</ele></trkpt>
      <trkpt lat="41.26982" lon="1.96521"><ele>3.5</ele></trkpt>
      <trkpt lat="41.26979" lon="1.96518"><ele>3.8</ele></trkpt>
      <trkpt lat="41.26973" lon="1.96515"><ele>3.8</ele></trkpt>
      <trkpt lat="41.26968" lon="1.96515"><ele>4.0</ele></trkpt>
      <trkpt lat="41.26964" lon="1.96517"><ele>4.2</ele></trkpt>
      <trkpt lat="41.26953" lon="1.96521"><ele>4.2</ele></trkpt>
      <trkpt lat="41.26937" lon="1.96520"><ele>5.5</ele></trkpt>
      <trkpt lat="41.26919" lon="1.96499"><ele>6.0</ele></trkpt>
      <trkpt lat="41.26909" lon="1.96485"><ele>8.0</ele></trkpt>
      <trkpt lat="41.26869" lon="1.96413"><ele>6.8</ele></trkpt>
      <trkpt lat="41.26845" lon="1.96364"><ele>6.8</ele></trkpt>
      <trkpt lat="41.26837" lon="1.96341"><ele>6.0</ele></trkpt>
      <trkpt lat="41.26831" lon="1.96318"><ele>5.5</ele></trkpt>
      <trkpt lat="41.26822" lon="1.96283"><ele>5.8</ele></trkpt>
      <trkpt lat="41.26812" lon="1.96241"><ele>6.2</ele></trkpt>
      <trkpt lat="41.26792" lon="1.96140"><ele>5.0</ele></trkpt>
      <trkpt lat="41.26786" lon="1.96099"><ele>5.2</ele></trkpt>
      <trkpt lat="41.26784" lon="1.96083"><ele>5.0</ele></trkpt>
      <trkpt lat="41.26773" lon="1.96010"><ele>4.0</ele></trkpt>
      <trkpt lat="41.26743" lon="1.95729"><ele>3.0</ele></trkpt>
      <trkpt lat="41.26743" lon="1.95720"><ele>3.2</ele></trkpt>
      <trkpt lat="41.26741" lon="1.95708"><ele>3.2</ele></trkpt>
      <trkpt lat="41.26726" lon="1.95558"><ele>3.0</ele></trkpt>
      <trkpt lat="41.26719" lon="1.95483"><ele>3.0</ele></trkpt>
      <trkpt lat="41.26716" lon="1.95455"><ele>3.0</ele></trkpt>
      <trkpt lat="41.26712" lon="1.95417"><ele>3.2</ele></trkpt>
      <trkpt lat="41.26712" lon="1.95412"><ele>3.2</ele></trkpt>
      <trkpt lat="41.26695" lon="1.95237"><ele>2.8</ele></trkpt>
      <trkpt lat="41.26673" lon="1.94996"><ele>2.8</ele></trkpt>
      <trkpt lat="41.26652" lon="1.94758"><ele>3.0</ele></trkpt>
      <trkpt lat="41.26643" lon="1.94649"><ele>3.0</ele></trkpt>
      <trkpt lat="41.26634" lon="1.94521"><ele>3.0</ele></trkpt>
      <trkpt lat="41.26633" lon="1.94512"><ele>3.0</ele></trkpt>
      <trkpt lat="41.26628" lon="1.94454"><ele>3.0</ele></trkpt>
      <trkpt lat="41.26618" lon="1.94331"><ele>3.5</ele></trkpt>
      <trkpt lat="41.26615" lon="1.94292"><ele>3.0</ele></trkpt>
      <trkpt lat="41.26612" lon="1.94263"><ele>3.0</ele></trkpt>
      <trkpt lat="41.26611" lon="1.94248"><ele>3.0</ele></trkpt>
      <trkpt lat="41.26596" lon="1.94075"><ele>3.2</ele></trkpt>
      <trkpt lat="41.26579" lon="1.93876"><ele>3.5</ele></trkpt>
      <trkpt lat="41.26576" lon="1.93842"><ele>3.5</ele></trkpt>
      <trkpt lat="41.26573" lon="1.93825"><ele>3.2</ele></trkpt>
      <trkpt lat="41.26569" lon="1.93808"><ele>3.0</ele></trkpt>
      <trkpt lat="41.26548" lon="1.93739"><ele>3.5</ele></trkpt>
      <trkpt lat="41.26539" lon="1.93706"><ele>3.5</ele></trkpt>
      <trkpt lat="41.26534" lon="1.93691"><ele>3.8</ele></trkpt>
      <trkpt lat="41.26526" lon="1.93664"><ele>4.0</ele></trkpt>
      <trkpt lat="41.26492" lon="1.93554"><ele>3.2</ele></trkpt>
      <trkpt lat="41.26467" lon="1.93458"><ele>3.2</ele></trkpt>
      <trkpt lat="41.26455" lon="1.93418"><ele>3.5</ele></trkpt>
      <trkpt lat="41.26436" lon="1.93357"><ele>3.8</ele></trkpt>
      <trkpt lat="41.26415" lon="1.93288"><ele>5.0</ele></trkpt>
      <trkpt lat="41.26400" lon="1.93238"><ele>6.2</ele></trkpt>
      <trkpt lat="41.26337" lon="1.93041"><ele>7.8</ele></trkpt>
      <trkpt lat="41.26328" lon="1.93010"><ele>7.8</ele></trkpt>
      <trkpt lat="41.26317" lon="1.92969"><ele>6.8</ele></trkpt>
      <trkpt lat="41.26297" lon="1.92876"><ele>10.8</ele></trkpt>
      <trkpt lat="41.26282" lon="1.92811"><ele>18.5</ele></trkpt>
      <trkpt lat="41.26278" lon="1.92797"><ele>18.8</ele></trkpt>
      <trkpt lat="41.26276" lon="1.92791"><ele>19.0</ele></trkpt>
      <trkpt lat="41.26273" lon="1.92786"><ele>19.0</ele></trkpt>
      <trkpt lat="41.26269" lon="1.92783"><ele>19.0</ele></trkpt>
      <trkpt lat="41.26263" lon="1.92779"><ele>19.0</ele></trkpt>
      <trkpt lat="41.26254" lon="1.92777"><ele>19.2</ele></trkpt>
      <trkpt lat="41.26241" lon="1.92775"><ele>20.8</ele></trkpt>
      <trkpt lat="41.26228" lon="1.92774"><ele>21.2</ele></trkpt>
      <trkpt lat="41.26220" lon="1.92771"><ele>22.5</ele></trkpt>
      <trkpt lat="41.26216" lon="1.92767"><ele>22.2</ele></trkpt>
      <trkpt lat="41.26212" lon="1.92763"><ele>22.2</ele></trkpt>
      <trkpt lat="41.26209" lon="1.92756"><ele>22.5</ele></trkpt>
      <trkpt lat="41.26206" lon="1.92747"><ele>23.2</ele></trkpt>
      <trkpt lat="41.26203" lon="1.92735"><ele>24.8</ele></trkpt>
      <trkpt lat="41.26200" lon="1.92719"><ele>26.5</ele></trkpt>
      <trkpt lat="41.26196" lon="1.92683"><ele>24.5</ele></trkpt>
      <trkpt lat="41.26192" lon="1.92667"><ele>26.8</ele></trkpt>
      <trkpt lat="41.26172" lon="1.92607"><ele>28.0</ele></trkpt>
      <trkpt lat="41.26132" lon="1.92432"><ele>20.8</ele></trkpt>
      <trkpt lat="41.26130" lon="1.92421"><ele>20.2</ele></trkpt>
      <trkpt lat="41.26127" lon="1.92403"><ele>20.0</ele></trkpt>
      <trkpt lat="41.26126" lon="1.92393"><ele>20.2</ele></trkpt>
      <trkpt lat="41.26126" lon="1.92383"><ele>20.5</ele></trkpt>
      <trkpt lat="41.26128" lon="1.92366"><ele>20.0</ele></trkpt>
      <trkpt lat="41.26129" lon="1.92357"><ele>19.8</ele></trkpt>
      <trkpt lat="41.26131" lon="1.92350"><ele>19.2</ele></trkpt>
      <trkpt lat="41.26140" lon="1.92331"><ele>18.5</ele></trkpt>
      <trkpt lat="41.26180" lon="1.92258"><ele>18.2</ele></trkpt>
      <trkpt lat="41.26187" lon="1.92244"><ele>18.2</ele></trkpt>
      <trkpt lat="41.26188" lon="1.92238"><ele>18.0</ele></trkpt>
      <trkpt lat="41.26191" lon="1.92214"><ele>17.5</ele></trkpt>
      <trkpt lat="41.26192" lon="1.92203"><ele>17.5</ele></trkpt>
      <trkpt lat="41.26191" lon="1.92190"><ele>17.0</ele></trkpt>
      <trkpt lat="41.26189" lon="1.92176"><ele>16.8</ele></trkpt>
      <trkpt lat="41.26185" lon="1.92162"><ele>16.5</ele></trkpt>
      <trkpt lat="41.26165" lon="1.92125"><ele>18.5</ele></trkpt>
      <trkpt lat="41.26126" lon="1.92073"><ele>20.2</ele></trkpt>
      <trkpt lat="41.26114" lon="1.92058"><ele>20.0</ele></trkpt>
      <trkpt lat="41.26102" lon="1.92044"><ele>19.8</ele></trkpt>
      <trkpt lat="41.26085" lon="1.92033"><ele>20.2</ele></trkpt>
      <trkpt lat="41.26074" lon="1.92028"><ele>21.2</ele></trkpt>
      <trkpt lat="41.26062" lon="1.92026"><ele>21.8</ele></trkpt>
      <trkpt lat="41.26048" lon="1.92026"><ele>22.5</ele></trkpt>
      <trkpt lat="41.26023" lon="1.92029"><ele>24.0</ele></trkpt>
      <trkpt lat="41.26009" lon="1.92031"><ele>24.8</ele></trkpt>
      <trkpt lat="41.25999" lon="1.92031"><ele>25.8</ele></trkpt>
      <trkpt lat="41.25988" lon="1.92028"><ele>26.2</ele></trkpt>
      <trkpt lat="41.25975" lon="1.92021"><ele>28.5</ele></trkpt>
      <trkpt lat="41.25964" lon="1.92009"><ele>28.5</ele></trkpt>
      <trkpt lat="41.25953" lon="1.91990"><ele>29.5</ele></trkpt>
      <trkpt lat="41.25891" lon="1.91879"><ele>36.0</ele></trkpt>
      <trkpt lat="41.25878" lon="1.91854"><ele>36.0</ele></trkpt>
      <trkpt lat="41.25863" lon="1.91830"><ele>37.5</ele></trkpt>
      <trkpt lat="41.25853" lon="1.91811"><ele>37.2</ele></trkpt>
      <trkpt lat="41.25837" lon="1.91781"><ele>40.0</ele></trkpt>
      <trkpt lat="41.25828" lon="1.91761"><ele>41.0</ele></trkpt>
      <trkpt lat="41.25817" lon="1.91730"><ele>44.2</ele></trkpt>
      <trkpt lat="41.25796" lon="1.91668"><ele>45.8</ele></trkpt>
      <trkpt lat="41.25789" lon="1.91647"><ele>46.2</ele></trkpt>
      <trkpt lat="41.25777" lon="1.91624"><ele>45.2</ele></trkpt>
      <trkpt lat="41.25763" lon="1.91598"><ele>50.0</ele></trkpt>
      <trkpt lat="41.25741" lon="1.91553"><ele>49.0</ele></trkpt>
      <trkpt lat="41.25719" lon="1.91507"><ele>48.0</ele></trkpt>
      <trkpt lat="41.25711" lon="1.91487"><ele>48.5</ele></trkpt>
      <trkpt lat="41.25706" lon="1.91466"><ele>52.5</ele></trkpt>
      <trkpt lat="41.25705" lon="1.91441"><ele>52.8</ele></trkpt>
      <trkpt lat="41.25703" lon="1.91378"><ele>50.5</ele></trkpt>
      <trkpt lat="41.25702" lon="1.91344"><ele>49.8</ele></trkpt>
      <trkpt lat="41.25698" lon="1.91323"><ele>48.2</ele></trkpt>
      <trkpt lat="41.25679" lon="1.91275"><ele>44.8</ele></trkpt>
      <trkpt lat="41.25674" lon="1.91262"><ele>45.2</ele></trkpt>
      <trkpt lat="41.25671" lon="1.91249"><ele>45.8</ele></trkpt>
      <trkpt lat="41.25668" lon="1.91235"><ele>44.5</ele></trkpt>
      <trkpt lat="41.25667" lon="1.91224"><ele>44.2</ele></trkpt>
      <trkpt lat="41.25668" lon="1.91170"><ele>42.8</ele></trkpt>
      <trkpt lat="41.25669" lon="1.91157"><ele>41.5</ele></trkpt>
      <trkpt lat="41.25671" lon="1.91122"><ele>39.5</ele></trkpt>
      <trkpt lat="41.25666" lon="1.91099"><ele>38.5</ele></trkpt>
      <trkpt lat="41.25664" lon="1.91093"><ele>38.0</ele></trkpt>
      <trkpt lat="41.25654" lon="1.91074"><ele>37.2</ele></trkpt>
      <trkpt lat="41.25618" lon="1.91018"><ele>36.8</ele></trkpt>
      <trkpt lat="41.25606" lon="1.90996"><ele>35.5</ele></trkpt>
      <trkpt lat="41.25601" lon="1.90983"><ele>35.0</ele></trkpt>
      <trkpt lat="41.25594" lon="1.90961"><ele>35.0</ele></trkpt>
      <trkpt lat="41.25592" lon="1.90948"><ele>35.5</ele></trkpt>
      <trkpt lat="41.25592" lon="1.90932"><ele>36.0</ele></trkpt>
      <trkpt lat="41.25592" lon="1.90926"><ele>36.5</ele></trkpt>
      <trkpt lat="41.25596" lon="1.90852"><ele>32.5</ele></trkpt>
      <trkpt lat="41.25596" lon="1.90842"><ele>31.2</ele></trkpt>
      <trkpt lat="41.25597" lon="1.90820"><ele>29.0</ele></trkpt>
      <trkpt lat="41.25596" lon="1.90798"><ele>28.0</ele></trkpt>
      <trkpt lat="41.25591" lon="1.90771"><ele>28.5</ele></trkpt>
      <trkpt lat="41.25589" lon="1.90764"><ele>28.8</ele></trkpt>
      <trkpt lat="41.25576" lon="1.90714"><ele>25.0</ele></trkpt>
      <trkpt lat="41.25572" lon="1.90698"><ele>24.2</ele></trkpt>
      <trkpt lat="41.25570" lon="1.90674"><ele>25.5</ele></trkpt>
      <trkpt lat="41.25570" lon="1.90654"><ele>25.5</ele></trkpt>
      <trkpt lat="41.25573" lon="1.90637"><ele>25.2</ele></trkpt>
      <trkpt lat="41.25577" lon="1.90621"><ele>24.2</ele></trkpt>
      <trkpt lat="41.25588" lon="1.90599"><ele>22.8</ele></trkpt>
      <trkpt lat="41.25598" lon="1.90585"><ele>21.8</ele></trkpt>
      <trkpt lat="41.25667" lon="1.90529"><ele>21.0</ele></trkpt>
      <trkpt lat="41.25694" lon="1.90507"><ele>20.5</ele></trkpt>
      <trkpt lat="41.25725" lon="1.90483"><ele>19.2</ele></trkpt>
      <trkpt lat="41.25732" lon="1.90476"><ele>18.2</ele></trkpt>
      <trkpt lat="41.25744" lon="1.90471"><ele>18.2</ele></trkpt>
      <trkpt lat="41.25751" lon="1.90467"><ele>18.5</ele></trkpt>
      <trkpt lat="41.25757" lon="1.90462"><ele>18.8</ele></trkpt>
      <trkpt lat="41.25774" lon="1.90445"><ele>17.8</ele></trkpt>
      <trkpt lat="41.25779" lon="1.90436"><ele>17.8</ele></trkpt>
      <trkpt lat="41.25781" lon="1.90431"><ele>18.0</ele></trkpt>
      <trkpt lat="41.25784" lon="1.90420"><ele>18.0</ele></trkpt>
      <trkpt lat="41.25784" lon="1.90402"><ele>18.0</ele></trkpt>
      <trkpt lat="41.25784" lon="1.90393"><ele>18.0</ele></trkpt>
      <trkpt lat="41.25786" lon="1.90374"><ele>18.2</ele></trkpt>
      <trkpt lat="41.25788" lon="1.90362"><ele>18.8</ele></trkpt>
      <trkpt lat="41.25798" lon="1.90326"><ele>14.5</ele></trkpt>
      <trkpt lat="41.25786" lon="1.90318"><ele>14.0</ele></trkpt>
      <trkpt lat="41.25775" lon="1.90315"><ele>13.8</ele></trkpt>
      <trkpt lat="41.25762" lon="1.90315"><ele>14.2</ele></trkpt>
      <trkpt lat="41.25749" lon="1.90323"><ele>14.2</ele></trkpt>
      <trkpt lat="41.25738" lon="1.90331"><ele>15.5</ele></trkpt>
      <trkpt lat="41.25717" lon="1.90347"><ele>15.8</ele></trkpt>
      <trkpt lat="41.25696" lon="1.90368"><ele>10.8</ele></trkpt>
      <trkpt lat="41.25673" lon="1.90380"><ele>10.8</ele></trkpt>
      <trkpt lat="41.25669" lon="1.90384"><ele>9.8</ele></trkpt>
      <trkpt lat="41.25667" lon="1.90388"><ele>9.2</ele></trkpt>
      <trkpt lat="41.25663" lon="1.90397"><ele>8.8</ele></trkpt>
      <trkpt lat="41.25659" lon="1.90407"><ele>8.5</ele></trkpt>
      <trkpt lat="41.25652" lon="1.90431"><ele>8.5</ele></trkpt>
      <trkpt lat="41.25649" lon="1.90438"><ele>8.5</ele></trkpt>
      <trkpt lat="41.25645" lon="1.90447"><ele>8.0</ele></trkpt>
      <trkpt lat="41.25641" lon="1.90453"><ele>7.8</ele></trkpt>
      <trkpt lat="41.25621" lon="1.90478"><ele>7.2</ele></trkpt>
      <trkpt lat="41.25616" lon="1.90482"><ele>6.5</ele></trkpt>
      <trkpt lat="41.25610" lon="1.90485"><ele>5.5</ele></trkpt>
      <trkpt lat="41.25554" lon="1.90492"><ele>9.0</ele></trkpt>
      <trkpt lat="41.25504" lon="1.90501"><ele>11.2</ele></trkpt>
      <trkpt lat="41.25490" lon="1.90501"><ele>7.8</ele></trkpt>
      <trkpt lat="41.25483" lon="1.90499"><ele>6.0</ele></trkpt>
      <trkpt lat="41.25477" lon="1.90491"><ele>4.5</ele></trkpt>
      <trkpt lat="41.25474" lon="1.90487"><ele>3.5</ele></trkpt>
      <trkpt lat="41.25430" lon="1.90332"><ele>8.0</ele></trkpt>
      <trkpt lat="41.25421" lon="1.90302"><ele>7.5</ele></trkpt>
      <trkpt lat="41.25411" lon="1.90282"><ele>9.0</ele></trkpt>
      <trkpt lat="41.25397" lon="1.90268"><ele>8.5</ele></trkpt>
      <trkpt lat="41.25392" lon="1.90264"><ele>8.0</ele></trkpt>
      <trkpt lat="41.25386" lon="1.90261"><ele>8.2</ele></trkpt>
      <trkpt lat="41.25368" lon="1.90248"><ele>10.0</ele></trkpt>
      <trkpt lat="41.25359" lon="1.90243"><ele>10.2</ele></trkpt>
      <trkpt lat="41.25295" lon="1.90226"><ele>12.2</ele></trkpt>
      <trkpt lat="41.25259" lon="1.90213"><ele>10.2</ele></trkpt>
      <trkpt lat="41.25250" lon="1.90208"><ele>7.5</ele></trkpt>
      <trkpt lat="41.25227" lon="1.90183"><ele>4.2</ele></trkpt>
      <trkpt lat="41.25222" lon="1.90165"><ele>4.0</ele></trkpt>
      <trkpt lat="41.25227" lon="1.90183"><ele>4.2</ele></trkpt>
      <trkpt lat="41.25250" lon="1.90208"><ele>7.5</ele></trkpt>
      <trkpt lat="41.25259" lon="1.90213"><ele>10.2</ele></trkpt>
      <trkpt lat="41.25295" lon="1.90226"><ele>12.2</ele></trkpt>
      <trkpt lat="41.25359" lon="1.90243"><ele>10.2</ele></trkpt>
      <trkpt lat="41.25368" lon="1.90248"><ele>10.0</ele></trkpt>
      <trkpt lat="41.25386" lon="1.90261"><ele>8.2</ele></trkpt>
      <trkpt lat="41.25392" lon="1.90264"><ele>8.0</ele></trkpt>
      <trkpt lat="41.25397" lon="1.90268"><ele>8.5</ele></trkpt>
      <trkpt lat="41.25411" lon="1.90282"><ele>9.0</ele></trkpt>
      <trkpt lat="41.25421" lon="1.90302"><ele>7.5</ele></trkpt>
      <trkpt lat="41.25430" lon="1.90332"><ele>8.0</ele></trkpt>
      <trkpt lat="41.25474" lon="1.90487"><ele>3.5</ele></trkpt>
      <trkpt lat="41.25477" lon="1.90491"><ele>4.5</ele></trkpt>
      <trkpt lat="41.25483" lon="1.90499"><ele>6.0</ele></trkpt>
      <trkpt lat="41.25490" lon="1.90501"><ele>7.8</ele></trkpt>
      <trkpt lat="41.25504" lon="1.90501"><ele>11.2</ele></trkpt>
      <trkpt lat="41.25554" lon="1.90492"><ele>9.0</ele></trkpt>
      <trkpt lat="41.25610" lon="1.90485"><ele>5.5</ele></trkpt>
      <trkpt lat="41.25616" lon="1.90482"><ele>6.5</ele></trkpt>
      <trkpt lat="41.25621" lon="1.90478"><ele>7.2</ele></trkpt>
      <trkpt lat="41.25641" lon="1.90453"><ele>7.8</ele></trkpt>
      <trkpt lat="41.25645" lon="1.90447"><ele>8.0</ele></trkpt>
      <trkpt lat="41.25649" lon="1.90438"><ele>8.5</ele></trkpt>
      <trkpt lat="41.25652" lon="1.90431"><ele>8.5</ele></trkpt>
      <trkpt lat="41.25659" lon="1.90407"><ele>8.5</ele></trkpt>
      <trkpt lat="41.25663" lon="1.90397"><ele>8.8</ele></trkpt>
      <trkpt lat="41.25667" lon="1.90388"><ele>9.2</ele></trkpt>
      <trkpt lat="41.25669" lon="1.90384"><ele>9.8</ele></trkpt>
      <trkpt lat="41.25673" lon="1.90380"><ele>10.8</ele></trkpt>
      <trkpt lat="41.25696" lon="1.90368"><ele>10.8</ele></trkpt>
      <trkpt lat="41.25717" lon="1.90347"><ele>15.8</ele></trkpt>
      <trkpt lat="41.25738" lon="1.90331"><ele>15.5</ele></trkpt>
      <trkpt lat="41.25749" lon="1.90323"><ele>14.2</ele></trkpt>
      <trkpt lat="41.25762" lon="1.90315"><ele>14.2</ele></trkpt>
      <trkpt lat="41.25775" lon="1.90315"><ele>13.8</ele></trkpt>
      <trkpt lat="41.25786" lon="1.90318"><ele>14.0</ele></trkpt>
      <trkpt lat="41.25798" lon="1.90326"><ele>14.5</ele></trkpt>
      <trkpt lat="41.25788" lon="1.90362"><ele>18.8</ele></trkpt>
      <trkpt lat="41.25786" lon="1.90374"><ele>18.2</ele></trkpt>
      <trkpt lat="41.25784" lon="1.90393"><ele>18.0</ele></trkpt>
      <trkpt lat="41.25784" lon="1.90402"><ele>18.0</ele></trkpt>
      <trkpt lat="41.25784" lon="1.90420"><ele>18.0</ele></trkpt>
      <trkpt lat="41.25781" lon="1.90431"><ele>18.0</ele></trkpt>
      <trkpt lat="41.25779" lon="1.90436"><ele>17.8</ele></trkpt>
      <trkpt lat="41.25774" lon="1.90445"><ele>17.8</ele></trkpt>
      <trkpt lat="41.25757" lon="1.90462"><ele>18.8</ele></trkpt>
      <trkpt lat="41.25751" lon="1.90467"><ele>18.5</ele></trkpt>
      <trkpt lat="41.25744" lon="1.90471"><ele>18.2</ele></trkpt>
      <trkpt lat="41.25732" lon="1.90476"><ele>18.2</ele></trkpt>
      <trkpt lat="41.25725" lon="1.90483"><ele>19.2</ele></trkpt>
      <trkpt lat="41.25694" lon="1.90507"><ele>20.5</ele></trkpt>
      <trkpt lat="41.25667" lon="1.90529"><ele>21.0</ele></trkpt>
      <trkpt lat="41.25598" lon="1.90585"><ele>21.8</ele></trkpt>
      <trkpt lat="41.25588" lon="1.90599"><ele>22.8</ele></trkpt>
      <trkpt lat="41.25577" lon="1.90621"><ele>24.2</ele></trkpt>
      <trkpt lat="41.25573" lon="1.90637"><ele>25.2</ele></trkpt>
      <trkpt lat="41.25570" lon="1.90654"><ele>25.5</ele></trkpt>
      <trkpt lat="41.25570" lon="1.90674"><ele>25.5</ele></trkpt>
      <trkpt lat="41.25572" lon="1.90698"><ele>24.2</ele></trkpt>
      <trkpt lat="41.25576" lon="1.90714"><ele>25.0</ele></trkpt>
      <trkpt lat="41.25589" lon="1.90764"><ele>28.8</ele></trkpt>
      <trkpt lat="41.25591" lon="1.90771"><ele>28.5</ele></trkpt>
      <trkpt lat="41.25596" lon="1.90798"><ele>28.0</ele></trkpt>
      <trkpt lat="41.25597" lon="1.90820"><ele>29.0</ele></trkpt>
      <trkpt lat="41.25596" lon="1.90842"><ele>31.2</ele></trkpt>
      <trkpt lat="41.25596" lon="1.90852"><ele>32.5</ele></trkpt>
      <trkpt lat="41.25592" lon="1.90926"><ele>36.5</ele></trkpt>
      <trkpt lat="41.25592" lon="1.90932"><ele>36.0</ele></trkpt>
      <trkpt lat="41.25592" lon="1.90948"><ele>35.5</ele></trkpt>
      <trkpt lat="41.25594" lon="1.90961"><ele>35.0</ele></trkpt>
      <trkpt lat="41.25601" lon="1.90983"><ele>35.0</ele></trkpt>
      <trkpt lat="41.25606" lon="1.90996"><ele>35.5</ele></trkpt>
      <trkpt lat="41.25618" lon="1.91018"><ele>36.8</ele></trkpt>
      <trkpt lat="41.25654" lon="1.91074"><ele>37.2</ele></trkpt>
      <trkpt lat="41.25664" lon="1.91093"><ele>38.0</ele></trkpt>
      <trkpt lat="41.25666" lon="1.91099"><ele>38.5</ele></trkpt>
      <trkpt lat="41.25671" lon="1.91122"><ele>39.5</ele></trkpt>
      <trkpt lat="41.25669" lon="1.91157"><ele>41.5</ele></trkpt>
      <trkpt lat="41.25668" lon="1.91170"><ele>42.8</ele></trkpt>
      <trkpt lat="41.25667" lon="1.91224"><ele>44.2</ele></trkpt>
      <trkpt lat="41.25668" lon="1.91235"><ele>44.5</ele></trkpt>
      <trkpt lat="41.25671" lon="1.91249"><ele>45.8</ele></trkpt>
      <trkpt lat="41.25674" lon="1.91262"><ele>45.2</ele></trkpt>
      <trkpt lat="41.25679" lon="1.91275"><ele>44.8</ele></trkpt>
      <trkpt lat="41.25698" lon="1.91323"><ele>48.2</ele></trkpt>
      <trkpt lat="41.25702" lon="1.91344"><ele>49.8</ele></trkpt>
      <trkpt lat="41.25703" lon="1.91378"><ele>50.5</ele></trkpt>
      <trkpt lat="41.25705" lon="1.91441"><ele>52.8</ele></trkpt>
      <trkpt lat="41.25706" lon="1.91466"><ele>52.5</ele></trkpt>
      <trkpt lat="41.25711" lon="1.91487"><ele>48.5</ele></trkpt>
      <trkpt lat="41.25719" lon="1.91507"><ele>48.0</ele></trkpt>
      <trkpt lat="41.25741" lon="1.91553"><ele>49.0</ele></trkpt>
      <trkpt lat="41.25763" lon="1.91598"><ele>50.0</ele></trkpt>
      <trkpt lat="41.25777" lon="1.91624"><ele>45.2</ele></trkpt>
      <trkpt lat="41.25789" lon="1.91647"><ele>46.2</ele></trkpt>
      <trkpt lat="41.25796" lon="1.91668"><ele>45.8</ele></trkpt>
      <trkpt lat="41.25817" lon="1.91730"><ele>44.2</ele></trkpt>
      <trkpt lat="41.25828" lon="1.91761"><ele>41.0</ele></trkpt>
      <trkpt lat="41.25837" lon="1.91781"><ele>40.0</ele></trkpt>
      <trkpt lat="41.25853" lon="1.91811"><ele>37.2</ele></trkpt>
      <trkpt lat="41.25863" lon="1.91830"><ele>37.5</ele></trkpt>
      <trkpt lat="41.25878" lon="1.91854"><ele>36.0</ele></trkpt>
      <trkpt lat="41.25891" lon="1.91879"><ele>36.0</ele></trkpt>
      <trkpt lat="41.25953" lon="1.91990"><ele>29.5</ele></trkpt>
      <trkpt lat="41.25964" lon="1.92009"><ele>28.5</ele></trkpt>
      <trkpt lat="41.25975" lon="1.92021"><ele>28.5</ele></trkpt>
      <trkpt lat="41.25988" lon="1.92028"><ele>26.2</ele></trkpt>
      <trkpt lat="41.25999" lon="1.92031"><ele>25.8</ele></trkpt>
      <trkpt lat="41.26009" lon="1.92031"><ele>24.8</ele></trkpt>
      <trkpt lat="41.26023" lon="1.92029"><ele>24.0</ele></trkpt>
      <trkpt lat="41.26048" lon="1.92026"><ele>22.5</ele></trkpt>
      <trkpt lat="41.26062" lon="1.92026"><ele>21.8</ele></trkpt>
      <trkpt lat="41.26074" lon="1.92028"><ele>21.2</ele></trkpt>
      <trkpt lat="41.26085" lon="1.92033"><ele>20.2</ele></trkpt>
      <trkpt lat="41.26102" lon="1.92044"><ele>19.8</ele></trkpt>
      <trkpt lat="41.26114" lon="1.92058"><ele>20.0</ele></trkpt>
      <trkpt lat="41.26126" lon="1.92073"><ele>20.2</ele></trkpt>
      <trkpt lat="41.26165" lon="1.92125"><ele>18.5</ele></trkpt>
      <trkpt lat="41.26185" lon="1.92162"><ele>16.5</ele></trkpt>
      <trkpt lat="41.26189" lon="1.92176"><ele>16.8</ele></trkpt>
      <trkpt lat="41.26191" lon="1.92190"><ele>17.0</ele></trkpt>
      <trkpt lat="41.26192" lon="1.92203"><ele>17.5</ele></trkpt>
      <trkpt lat="41.26191" lon="1.92214"><ele>17.5</ele></trkpt>
      <trkpt lat="41.26188" lon="1.92238"><ele>18.0</ele></trkpt>
      <trkpt lat="41.26187" lon="1.92244"><ele>18.2</ele></trkpt>
      <trkpt lat="41.26180" lon="1.92258"><ele>18.2</ele></trkpt>
      <trkpt lat="41.26140" lon="1.92331"><ele>18.5</ele></trkpt>
      <trkpt lat="41.26131" lon="1.92350"><ele>19.2</ele></trkpt>
      <trkpt lat="41.26129" lon="1.92357"><ele>19.8</ele></trkpt>
      <trkpt lat="41.26128" lon="1.92366"><ele>20.0</ele></trkpt>
      <trkpt lat="41.26126" lon="1.92383"><ele>20.5</ele></trkpt>
      <trkpt lat="41.26126" lon="1.92393"><ele>20.2</ele></trkpt>
      <trkpt lat="41.26127" lon="1.92403"><ele>20.0</ele></trkpt>
      <trkpt lat="41.26130" lon="1.92421"><ele>20.2</ele></trkpt>
      <trkpt lat="41.26132" lon="1.92432"><ele>20.8</ele></trkpt>
      <trkpt lat="41.26172" lon="1.92607"><ele>28.0</ele></trkpt>
      <trkpt lat="41.26192" lon="1.92667"><ele>26.8</ele></trkpt>
      <trkpt lat="41.26196" lon="1.92683"><ele>24.5</ele></trkpt>
      <trkpt lat="41.26200" lon="1.92719"><ele>26.5</ele></trkpt>
      <trkpt lat="41.26203" lon="1.92735"><ele>24.8</ele></trkpt>
      <trkpt lat="41.26206" lon="1.92747"><ele>23.2</ele></trkpt>
      <trkpt lat="41.26209" lon="1.92756"><ele>22.5</ele></trkpt>
      <trkpt lat="41.26212" lon="1.92763"><ele>22.2</ele></trkpt>
      <trkpt lat="41.26216" lon="1.92767"><ele>22.2</ele></trkpt>
      <trkpt lat="41.26220" lon="1.92771"><ele>22.5</ele></trkpt>
      <trkpt lat="41.26228" lon="1.92774"><ele>21.2</ele></trkpt>
      <trkpt lat="41.26241" lon="1.92775"><ele>20.8</ele></trkpt>
      <trkpt lat="41.26254" lon="1.92777"><ele>19.2</ele></trkpt>
      <trkpt lat="41.26263" lon="1.92779"><ele>19.0</ele></trkpt>
      <trkpt lat="41.26269" lon="1.92783"><ele>19.0</ele></trkpt>
      <trkpt lat="41.26273" lon="1.92786"><ele>19.0</ele></trkpt>
      <trkpt lat="41.26276" lon="1.92791"><ele>19.0</ele></trkpt>
      <trkpt lat="41.26278" lon="1.92797"><ele>18.8</ele></trkpt>
      <trkpt lat="41.26282" lon="1.92811"><ele>18.5</ele></trkpt>
      <trkpt lat="41.26297" lon="1.92876"><ele>10.8</ele></trkpt>
      <trkpt lat="41.26317" lon="1.92969"><ele>6.8</ele></trkpt>
      <trkpt lat="41.26328" lon="1.93010"><ele>7.8</ele></trkpt>
      <trkpt lat="41.26337" lon="1.93041"><ele>7.8</ele></trkpt>
      <trkpt lat="41.26400" lon="1.93238"><ele>6.2</ele></trkpt>
      <trkpt lat="41.26415" lon="1.93288"><ele>5.0</ele></trkpt>
      <trkpt lat="41.26436" lon="1.93357"><ele>3.8</ele></trkpt>
      <trkpt lat="41.26455" lon="1.93418"><ele>3.5</ele></trkpt>
      <trkpt lat="41.26467" lon="1.93458"><ele>3.2</ele></trkpt>
      <trkpt lat="41.26492" lon="1.93554"><ele>3.2</ele></trkpt>
      <trkpt lat="41.26526" lon="1.93664"><ele>4.0</ele></trkpt>
      <trkpt lat="41.26534" lon="1.93691"><ele>3.8</ele></trkpt>
      <trkpt lat="41.26539" lon="1.93706"><ele>3.5</ele></trkpt>
      <trkpt lat="41.26548" lon="1.93739"><ele>3.5</ele></trkpt>
      <trkpt lat="41.26569" lon="1.93808"><ele>3.0</ele></trkpt>
      <trkpt lat="41.26573" lon="1.93825"><ele>3.2</ele></trkpt>
      <trkpt lat="41.26576" lon="1.93842"><ele>3.5</ele></trkpt>
      <trkpt lat="41.26579" lon="1.93876"><ele>3.5</ele></trkpt>
      <trkpt lat="41.26596" lon="1.94075"><ele>3.2</ele></trkpt>
      <trkpt lat="41.26611" lon="1.94248"><ele>3.0</ele></trkpt>
      <trkpt lat="41.26612" lon="1.94263"><ele>3.0</ele></trkpt>
      <trkpt lat="41.26615" lon="1.94292"><ele>3.0</ele></trkpt>
      <trkpt lat="41.26618" lon="1.94331"><ele>3.5</ele></trkpt>
      <trkpt lat="41.26628" lon="1.94454"><ele>3.0</ele></trkpt>
      <trkpt lat="41.26633" lon="1.94512"><ele>3.0</ele></trkpt>
      <trkpt lat="41.26634" lon="1.94521"><ele>3.0</ele></trkpt>
      <trkpt lat="41.26643" lon="1.94649"><ele>3.0</ele></trkpt>
      <trkpt lat="41.26652" lon="1.94758"><ele>3.0</ele></trkpt>
      <trkpt lat="41.26673" lon="1.94996"><ele>2.8</ele></trkpt>
      <trkpt lat="41.26695" lon="1.95237"><ele>2.8</ele></trkpt>
      <trkpt lat="41.26712" lon="1.95412"><ele>3.2</ele></trkpt>
      <trkpt lat="41.26712" lon="1.95417"><ele>3.2</ele></trkpt>
      <trkpt lat="41.26716" lon="1.95455"><ele>3.0</ele></trkpt>
      <trkpt lat="41.26719" lon="1.95483"><ele>3.0</ele></trkpt>
      <trkpt lat="41.26726" lon="1.95558"><ele>3.0</ele></trkpt>
      <trkpt lat="41.26741" lon="1.95708"><ele>3.2</ele></trkpt>
      <trkpt lat="41.26743" lon="1.95720"><ele>3.2</ele></trkpt>
      <trkpt lat="41.26743" lon="1.95729"><ele>3.0</ele></trkpt>
      <trkpt lat="41.26773" lon="1.96010"><ele>4.0</ele></trkpt>
      <trkpt lat="41.26784" lon="1.96083"><ele>5.0</ele></trkpt>
      <trkpt lat="41.26786" lon="1.96099"><ele>5.2</ele></trkpt>
      <trkpt lat="41.26792" lon="1.96140"><ele>5.0</ele></trkpt>
      <trkpt lat="41.26812" lon="1.96241"><ele>6.2</ele></trkpt>
      <trkpt lat="41.26822" lon="1.96283"><ele>5.8</ele></trkpt>
      <trkpt lat="41.26831" lon="1.96318"><ele>5.5</ele></trkpt>
      <trkpt lat="41.26837" lon="1.96341"><ele>6.0</ele></trkpt>
      <trkpt lat="41.26845" lon="1.96364"><ele>6.8</ele></trkpt>
      <trkpt lat="41.26869" lon="1.96413"><ele>6.8</ele></trkpt>
      <trkpt lat="41.26909" lon="1.96485"><ele>8.0</ele></trkpt>
      <trkpt lat="41.26919" lon="1.96499"><ele>6.0</ele></trkpt>
      <trkpt lat="41.26937" lon="1.96520"><ele>5.5</ele></trkpt>
      <trkpt lat="41.26953" lon="1.96521"><ele>4.2</ele></trkpt>
      <trkpt lat="41.26964" lon="1.96517"><ele>4.2</ele></trkpt>
      <trkpt lat="41.26968" lon="1.96515"><ele>4.0</ele></trkpt>
      <trkpt lat="41.26973" lon="1.96515"><ele>3.8</ele></trkpt>
      <trkpt lat="41.26979" lon="1.96518"><ele>3.8</ele></trkpt>
      <trkpt lat="41.26982" lon="1.96521"><ele>3.5</ele></trkpt>
      <trkpt lat="41.26985" lon="1.96525"><ele>3.5</ele></trkpt>
      <trkpt lat="41.26986" lon="1.96530"><ele>3.2</ele></trkpt>
      <trkpt lat="41.26987" lon="1.96539"><ele>3.2</ele></trkpt>
      <trkpt lat="41.26984" lon="1.96547"><ele>3.2</ele></trkpt>
      <trkpt lat="41.26983" lon="1.96559"><ele>3.2</ele></trkpt>
      <trkpt lat="41.26983" lon="1.96582"><ele>3.5</ele></trkpt>
      <trkpt lat="41.26986" lon="1.96595"><ele>3.2</ele></trkpt>
      <trkpt lat="41.26990" lon="1.96617"><ele>3.2</ele></trkpt>
      <trkpt lat="41.26996" lon="1.96644"><ele>4.5</ele></trkpt>
      <trkpt lat="41.27002" lon="1.96665"><ele>5.8</ele></trkpt>
      <trkpt lat="41.27031" lon="1.96719"><ele>7.0</ele></trkpt>
      <trkpt lat="41.27047" lon="1.96749"><ele>6.2</ele></trkpt>
      <trkpt lat="41.27092" lon="1.96831"><ele>4.8</ele></trkpt>
      <trkpt lat="41.27100" lon="1.96853"><ele>3.8</ele></trkpt>
      <trkpt lat="41.27111" lon="1.96872"><ele>3.0</ele></trkpt>
      <trkpt lat="41.27125" lon="1.96896"><ele>3.0</ele></trkpt>
      <trkpt lat="41.27128" lon="1.96902"><ele>3.2</ele></trkpt>
      <trkpt lat="41.27142" lon="1.96927"><ele>4.0</ele></trkpt>
      <trkpt lat="41.27178" lon="1.96988"><ele>5.5</ele></trkpt>
      <trkpt lat="41.27258" lon="1.97116"><ele>7.5</ele></trkpt>
      <trkpt lat="41.27261" lon="1.97120"><ele>6.5</ele></trkpt>
      <trkpt lat="41.27264" lon="1.97123"><ele>5.8</ele></trkpt>
      <trkpt lat="41.27265" lon="1.97121"><ele>5.8</ele></trkpt>
      <trkpt lat="41.27267" lon="1.97118"><ele>5.2</ele></trkpt>
      <trkpt lat="41.27269" lon="1.97117"><ele>4.8</ele></trkpt>
      <trkpt lat="41.27273" lon="1.97119"><ele>4.0</ele></trkpt>
      <trkpt lat="41.27275" lon="1.97123"><ele>3.5</ele></trkpt>
      <trkpt lat="41.27275" lon="1.97125"><ele>3.5</ele></trkpt>
      <trkpt lat="41.27273" lon="1.97130"><ele>3.8</ele></trkpt>
      <trkpt lat="41.27270" lon="1.97132"><ele>4.2</ele></trkpt>
      <trkpt lat="41.27275" lon="1.97142"><ele>4.2</ele></trkpt>
      <trkpt lat="41.27284" lon="1.97156"><ele>6.2</ele></trkpt>
      <trkpt lat="41.27330" lon="1.97218"><ele>3.0</ele></trkpt>
      <trkpt lat="41.27364" lon="1.97255"><ele>2.8</ele></trkpt>
      <trkpt lat="41.27386" lon="1.97278"><ele>2.0</ele></trkpt>
      <trkpt lat="41.27388" lon="1.97280"><ele>2.0</ele></trkpt>
      <trkpt lat="41.27400" lon="1.97293"><ele>2.5</ele></trkpt>
      <trkpt lat="41.27406" lon="1.97290"><ele>2.5</ele></trkpt>
      <trkpt lat="41.27412" lon="1.97291"><ele>2.5</ele></trkpt>
      <trkpt lat="41.27419" lon="1.97296"><ele>2.2</ele></trkpt>
      <trkpt lat="41.27486" lon="1.97366"><ele>2.0</ele></trkpt>
      <trkpt lat="41.27544" lon="1.97429"><ele>2.2</ele></trkpt>
      <trkpt lat="41.27551" lon="1.97436"><ele>2.0</ele></trkpt>
      <trkpt lat="41.27556" lon="1.97445"><ele>2.0</ele></trkpt>
      <trkpt lat="41.27556" lon="1.97448"><ele>2.0</ele></trkpt>
      <trkpt lat="41.27565" lon="1.97459"><ele>2.2</ele></trkpt>
      <trkpt lat="41.27568" lon="1.97467"><ele>2.2</ele></trkpt>
      <trkpt lat="41.27577" lon="1.97475"><ele>2.5</ele></trkpt>
      <trkpt lat="41.27605" lon="1.97506"><ele>2.8</ele></trkpt>
      <trkpt lat="41.27610" lon="1.97511"><ele>2.8</ele></trkpt>
      <trkpt lat="41.27615" lon="1.97516"><ele>3.0</ele></trkpt>
      <trkpt lat="41.27625" lon="1.97527"><ele>3.0</ele></trkpt>
      <trkpt lat="41.27696" lon="1.97601"><ele>3.0</ele></trkpt>
      <trkpt lat="41.27705" lon="1.97610"><ele>3.0</ele></trkpt>
      <trkpt lat="41.27714" lon="1.97619"><ele>3.0</ele></trkpt>
      <trkpt lat="41.27768" lon="1.97676"><ele>3.0</ele></trkpt>
      <trkpt lat="41.27774" lon="1.97682"><ele>3.0</ele></trkpt>
      <trkpt lat="41.27792" lon="1.97698"><ele>3.0</ele></trkpt>
      <trkpt lat="41.27809" lon="1.97717"><ele>3.0</ele></trkpt>
      <trkpt lat="41.27812" lon="1.97720"><ele>3.0</ele></trkpt>
      <trkpt lat="41.27814" lon="1.97722"><ele>2.8</ele></trkpt>
      <trkpt lat="41.27823" lon="1.97732"><ele>2.8</ele></trkpt>
      <trkpt lat="41.27826" lon="1.97735"><ele>2.8</ele></trkpt>
      <trkpt lat="41.27836" lon="1.97746"><ele>3.0</ele></trkpt>
      <trkpt lat="41.27838" lon="1.97748"><ele>3.0</ele></trkpt>
      <trkpt lat="41.27852" lon="1.97764"><ele>3.0</ele></trkpt>
      <trkpt lat="41.27872" lon="1.97782"><ele>3.0</ele></trkpt>
      <trkpt lat="41.27879" lon="1.97789"><ele>3.0</ele></trkpt>
      <trkpt lat="41.27913" lon="1.97825"><ele>3.5</ele></trkpt>
      <trkpt lat="41.27917" lon="1.97829"><ele>3.2</ele></trkpt>
      <trkpt lat="41.27944" lon="1.97857"><ele>3.0</ele></trkpt>
      <trkpt lat="41.27955" lon="1.97870"><ele>3.0</ele></trkpt>
      <trkpt lat="41.28001" lon="1.97917"><ele>3.0</ele></trkpt>
      <trkpt lat="41.28035" lon="1.97953"><ele>3.0</ele></trkpt>
      <trkpt lat="41.28062" lon="1.97981"><ele>3.0</ele></trkpt>
      <trkpt lat="41.28064" lon="1.97978"><ele>3.0</ele></trkpt>
      <trkpt lat="41.28067" lon="1.97977"><ele>3.0</ele></trkpt>
      <trkpt lat="41.28071" lon="1.97978"><ele>3.0</ele></trkpt>
      <trkpt lat="41.28074" lon="1.97980"><ele>3.0</ele></trkpt>
      <trkpt lat="41.28080" lon="1.97970"><ele>3.0</ele></trkpt>
      <trkpt lat="41.28105" lon="1.97928"><ele>3.0</ele></trkpt>
      <trkpt lat="41.28088" lon="1.97914"><ele>3.0</ele></trkpt>
      <trkpt lat="41.28060" lon="1.97884"><ele>3.0</ele></trkpt>
    </trkseg>
  </trk>
</gpx>
